BEIDOU 3 (C01)          
1 36287U 10001A   21011.56646677 -.00000284  00000-0  00000-0 0  9995
2 36287   1.6517  39.3249 0003444 110.5521 305.7408  1.00269963 40296
BEIDOU 5 (C06)          
1 36828U 10036A   21011.60275280 -.00000060  00000-0  00000-0 0  9999
2 36828  54.1693 181.0426 0100948 233.2870  30.8396  1.00250917 38337
BEIDOU 6 (C04)          
1 37210U 10057A   21011.65439086 -.00000115  00000-0  00000-0 0  9990
2 37210   0.8714  49.5789 0005944 191.7362 265.6577  1.00271891 37409
BEIDOU 7 (C07)          
1 37256U 10068A   21011.44095810 -.00000222  00000-0  00000-0 0  9991
2 37256  51.1315 295.8697 0079063 215.7399 232.8262  1.00243827 36920
BEIDOU 8 (C08)          
1 37384U 11013A   21011.53100784 -.00000200  00000-0  00000+0 0  9996
2 37384  59.5634  59.4867 0055691 205.4257 154.2443  1.00297915 35789
BEIDOU 9 (C09)          
1 37763U 11038A   21011.45389115 -.00000003  00000-0  00000-0 0  9994
2 37763  54.4508 183.4575 0073024 223.0647 319.7087  1.00252038 34763
BEIDOU 10 (C10)         
1 37948U 11073A   21010.86959156 -.00000165  00000-0  00000-0 0  9999
2 37948  51.2367 295.4830 0070341 216.6421   6.1321  1.00288297 33517
BEIDOU 11 (C05)         
1 38091U 12008A   21011.59746795  .00000053  00000-0  00000-0 0  9997
2 38091   1.9214  71.1288 0003836 237.1971  76.7670  1.00272732 32593
BEIDOU 12 (C11)         
1 38250U 12018A   21011.28233186 -.00000083  00000-0  00000-0 0  9990
2 38250  56.7552  10.8025 0024688 248.3843 149.3552  1.86234337 59365
BEIDOU 13 (C12)         
1 38251U 12018B   21011.36881706 -.00000084  00000-0  00000-0 0  9998
2 38251  56.6778  10.1588 0015766 250.7715 249.3872  1.86233366 59361
BEIDOU 15 (C14)         
1 38775U 12050B   21011.44728627 -.00000035  00000-0  00000-0 0  9992
2 38775  55.1403 129.2790 0012585 321.8440  68.2980  1.86232305 56748
BEIDOU 16 (C02)         
1 38953U 12059A   21011.59882557 -.00000179  00000-0  00000-0 0  9997
2 38953   1.5955  84.8675 0009068 260.3869  65.5864  1.00273189 30165
BEIDOU 17 (C31)         
1 40549U 15019A   21008.91752262 -.00000180  00000-0  00000+0 0  9992
2 40549  52.7484 318.8342 0037091 189.7096  21.9925  1.00300001 21177
BEIDOU 18 (C57)         
1 40748U 15037A   21011.30345038 -.00000086  00000-0  00000-0 0  9995
2 40748  55.9437   9.3421 0004276 321.1589  45.2778  1.86233493 37197
BEIDOU 19 (C58)         
1 40749U 15037B   21011.35487818 -.00000086  00000-0  00000-0 0  9994
2 40749  55.9475   9.3289 0007081 297.0998 240.5975  1.86232249 37180
BEIDOU 20 (C18)         
1 40938U 15053A   21011.20257670 -.00000136  00000-0  00000-0 0  9993
2 40938  52.3048 281.8633 0046091 191.1217 167.4100  1.00271971 19479
BEIDOU IGSO-6 (C13)     
1 41434U 16021A   21011.59791791 -.00000148  00000-0  00000-0 0  9993
2 41434  57.3336  58.3014 0043154 210.3951 150.6992  1.00259569 17607
BEIDOU-2 G7 (C03)       
1 41586U 16037A   21011.58313503 -.00000358  00000-0  00000-0 0  9991
2 41586   1.9251  69.2434 0008774   0.0502   2.4453  1.00273917 16910
BEIDOU-3 M1 (C19)       
1 43001U 17069A   21011.24921088 -.00000034  00000-0  00000-0 0  9998
2 43001  55.2955 129.2161 0007799 284.7248 129.0561  1.86231686 21671
BEIDOU-3 M2 (C20)       
1 43002U 17069B   21011.57519270 -.00000035  00000-0  00000-0 0  9992
2 43002  55.2944 129.2402 0006580 313.5401   2.4411  1.86231470 21665
BEIDOU-3 M3 (C27)       
1 43107U 18003A   21011.38846409 -.00000087  00000-0  00000-0 0  9990
2 43107  55.3834  10.4896 0003587  26.2153 330.4467  1.86232593 20429
BEIDOU-3 M4 (C28)       
1 43108U 18003B   21011.54589411 -.00000088  00000-0  00000-0 0  9997
2 43108  55.3769  10.4750 0004529 251.8726 255.5221  1.86232627 20439
BEIDOU-3 M5 (C21)       
1 43207U 18018A   21010.69951363 -.00000031  00000-0  00000-0 0  9995
2 43207  55.2535 129.3659 0004706 338.2191  21.7224  1.86231356 19803
BEIDOU-3 M6 (C22)       
1 43208U 18018B   21011.30321004 -.00000034  00000-0  00000-0 0  9991
2 43208  55.2532 129.3506 0006606 296.5367  63.3568  1.86231488 19814
BEIDOU-3 M7 (C29)       
1 43245U 18029A   21011.28065613 -.00000088  00000-0  00000-0 0  9991
2 43245  55.3221   8.2941 0001682 278.8927 275.6069  1.86232722 18964
BEIDOU-3 M8 (C30)       
1 43246U 18029B   21011.45511244 -.00000089  00000-0  10000-3 0  9992
2 43246  55.3200   8.3192 0004800 328.9419  28.5877  1.86232976 18951
BEIDOU IGSO-7 (C16)     
1 43539U 18057A   21011.60305374 -.00000081  00000-0  00000-0 0  9998
2 43539  55.0508 180.3655 0030974 211.9421  50.4140  1.00261363  9274
BEIDOU-3 M9 (C23)       
1 43581U 18062A   21011.40224356  .00000062  00000-0  00000-0 0  9997
2 43581  54.4676 249.9912 0003453 305.6314 226.1678  1.86231911 16706
BEIDOU-3 M10 (C24)      
1 43582U 18062B   21011.40215461  .00000062  00000-0  00000-0 0  9995
2 43582  54.4675 249.9800 0006517   2.8113 260.1293  1.86232367 16706
BEIDOU-3 M11 (C25)      
1 43602U 18067A   21010.96912615  .00000066  00000-0  00000-0 0  9992
2 43602  54.5418 248.5656 0007534 359.8654  15.2405  1.86231579 16195
BEIDOU-3 M12 (C26)      
1 43603U 18067B   21011.32243323  .00000066  00000-0  00000-0 0  9997
2 43603  54.5382 248.5206 0004833 353.6493 168.8274  1.86231534 16212
BEIDOU-3 M13 (C32)      
1 43622U 18072A   21011.52124830 -.00000036  00000-0  00000-0 0  9995
2 43622  55.2180 128.9120 0004655 278.4887  47.6589  1.86231552 15724
BEIDOU-3 M14 (C33)      
1 43623U 18072B   21011.44135648 -.00000035  00000-0  00000-0 0  9995
2 43623  55.2196 128.9061 0003136 315.0524  47.7652  1.86231550 15736
BEIDOU-3 M15 (C34)      
1 43647U 18078A   21011.24937928 -.00000088  00000-0  10000-3 0  9998
2 43647  55.2146   8.4978 0006861 337.6327 151.6398  1.86232869 15236
BEIDOU-3 M16 (C35)      
1 43648U 18078B   21011.18721046 -.00000087  00000-0  10000-3 0  9993
2 43648  55.2101   8.5077 0004594 340.3906  15.9270  1.86232368 15240
BEIDOU-3 G1 (C59)       
1 43683U 18085A   21011.65274359 -.00000280  00000-0  00000-0 0  9993
2 43683   1.3348 243.0545 0003956  15.7727 227.5274  1.00267591  8187
BEIDOU-3 M17 (C36)      
1 43706U 18093A   21011.21008253  .00000063  00000-0  00000-0 0  9996
2 43706  54.5479 249.8442 0008820 279.6903 348.2366  1.86231938 14595
BEIDOU-3 M18 (C37)      
1 43707U 18093B   21011.39917087  .00000063  00000-0  00000-0 0  9990
2 43707  54.5488 249.8285 0008282 306.2198 179.1901  1.86232201 14608
BEIDOU-3 IGSO-1 (C38)   
1 44204U 19023A   21011.53057166 -.00000221  00000-0  00000-0 0  9993
2 44204  55.7923  58.6293 0017796 200.7525 156.5736  1.00286870  6473
BEIDOU-2 G8             
1 44231U 19027A   21011.60327221 -.00000248  00000-0  00000-0 0  9996
2 44231   0.5246 309.2926 0007860 270.7808 252.8168  1.00276809  6200
BEIDOU-3 IGSO-2 (C39)   
1 44337U 19035A   21011.46958068 -.00000077  00000-0  00000-0 0  9995
2 44337  55.0911 176.4147 0016505 183.9478  27.4077  1.00278349  5816
BEIDOU-3 M23 (C45)      
1 44542U 19061A   21011.51412794  .00000063  00000-0  10000-3 0  9997
2 44542  54.7726 249.8729 0009086 337.1330 178.9094  1.86231630  8866
BEIDOU-3 M24 (C46)      
1 44543U 19061B   21011.27704728  .00000064  00000-0  10000-3 0  9993
2 44543  54.7704 249.8522 0006110 335.6799 292.0452  1.86231713  8869
BEIDOU-3 IGSO-3         
1 44709U 19073A   21010.73935693 -.00000199  00000-0  00000-0 0  9993
2 44709  58.0877 301.7834 0019497 195.8301 347.0542  1.00271159  4560
BEIDOU-3 M21            
1 44793U 19078A   21010.04923917 -.00000080  00000-0  10000-3 0  9994
2 44793  55.0638   8.6234 0006854 344.5331  14.7378  1.86231987  7692
BEIDOU-3 M22            
1 44794U 19078B   21011.35147139 -.00000089  00000-0  10000-3 0  9993
2 44794  55.0377   8.5809 0004971 335.9240  87.1089  1.86232501  7721
BEIDOU-3 M19            
1 44864U 19090A   21011.54127259 -.00000035  00000-0  00000-0 0  9994
2 44864  55.1530 129.1512 0014462 260.1969 124.7296  1.86231786  7312
BEIDOU-3 M20            
1 44865U 19090B   21011.37153517 -.00000035  00000-0  00000-0 0  9992
2 44865  55.1555 129.1871 0012983 277.2297  83.8230  1.86231743  7290
BEIDOU-3 G2             
1 45344U 20017A   21011.52368000 -.00000139  00000-0  00000-0 0  9993
2 45344   2.6437 332.5888 0000849   6.1484  41.0395  1.00272315  3382
BEIDOU-3 G3             
1 45807U 20040A   21011.60149458 -.00000351  00000-0  00000-0 0  9992
2 45807   2.6448 298.4191 0010332  13.3787 126.6017  1.00271668  2200
